{"type": "FeatureCollection", "features": [ {"type": "Feature", "properties": {"norad_id": 39620, "name": "COSMOS 2492 (754)", "group": "gnss", "lat": 0.4775706636090327, "lon": 139.777014697982, "alt_km": 19155.01955555056, "timestamp": "2025-12-20T07:33:51.055811+00:00", "meta": {"OBJECT_NAME": "COSMOS 2492 (754)", "OBJECT_ID": "2014-012A", "EPOCH": "2025-12-18T04:53:42.056736", "MEAN_MOTION": 2.13103354, "ECCENTRICITY": 0.0014217, "INCLINATION": 65.4043, "RA_OF_ASC_NODE": 320.0846, "ARG_OF_PERICENTER": 312.4931, "MEAN_ANOMALY": 47.3782, "EPHEMERIS_TYPE": 0, "CLASSIFICATION_TYPE": "U", "NORAD_CAT_ID": 39620, "ELEMENT_SET_NO": 999, "REV_AT_EPOCH": 9138, "BSTAR": 0, "MEAN_MOTION_DOT": -6.4e-07, "MEAN_MOTION_DDOT": 0}, "tle": {"line1": "1 39620U 14012A   25352.20395899 -.00000064  00000+0  00000+0 0  9999", "line2": "2 39620  65.4043 320.0846 0014217 312.4931  47.3782  2.13103354 91389"}}, "geometry": {"type": "Point", "coordinates": [139.777014697982, 0.4775706636090327]}}, {"type": "Feature", "properties": {"norad_id": 39635, "name": "IRNSS-1B", "group": "gnss", "lat": 7.047892608231613, "lon": -103.71318958118012, "alt_km": 35834.2100977756, "timestamp": "2025-12-20T07:33:51.055823+00:00", "meta": {"OBJECT_NAME": "IRNSS-1B", "OBJECT_ID": "2014-017A", "EPOCH": "2025-12-19T18:39:43.398432", "MEAN_MOTION": 1.00270773, "ECCENTRICITY": 0.00187667, "INCLINATION": 29.2538, "RA_OF_ASC_NODE": 243.4836, "ARG_OF_PERICENTER": 246.8135, "MEAN_ANOMALY": 293.6282, "EPHEMERIS_TYPE": 0, "CLASSIFICATION_TYPE": "U", "NORAD_CAT_ID": 39635, "ELEMENT_SET_NO": 999, "REV_AT_EPOCH": 4299, "BSTAR": 0, "MEAN_MOTION_DOT": 1.52e-06, "MEAN_MOTION_DDOT": 0}, "tle": {"line1": "1 39635U 14017A   25353.77758563  .00000152  00000+0  00000+0 0  9991", "line2": "2 39635  29.2538 243.4836 0018766 246.8135 293.6282  1.00270773 42997"}}, "geometry": {"type": "Point", "coordinates": [-103.71318958118012, 7.047892608231613]}}, {"type": "Feature", "properties": {"norad_id": 39727, "name": "LUCH 5V (SDCM/PRN 141)", "group": "gnss", "lat": -3.382681668490027, "lon": -62.82830657238666, "alt_km": 35770.054125067414, "timestamp": "2025-12-20T07:33:51.055834+00:00", "meta": {"OBJECT_NAME": "LUCH 5V (SDCM/PRN 141)", "OBJECT_ID": "2014-023A", "EPOCH": "2025-12-19T17:07:14.606400", "MEAN_MOTION": 1.00267053, "ECCENTRICITY": 0.00043201, "INCLINATION": 4.6856, "RA_OF_ASC_NODE": 71.4767, "ARG_OF_PERICENTER": 213.4503, "MEAN_ANOMALY": 155.0982, "EPHEMERIS_TYPE": 0, "CLASSIFICATION_TYPE": "U", "NORAD_CAT_ID": 39727, "ELEMENT_SET_NO": 999, "REV_AT_EPOCH": 4256, "BSTAR": 0, "MEAN_MOTION_DOT": -2.47e-06, "MEAN_MOTION_DDOT": 0}, "tle": {"line1": "1 39727U 14023A   25353.71336350 -.00000247  00000+0  00000+0 0  9996", "line2": "2 39727   4.6856  71.4767 0004320 213.4503 155.0982  1.00267053 42569"}}, "geometry": {"type": "Point", "coordinates": [-62.82830657238666, -3.382681668490027]}}, {"type": "Feature", "properties": {"norad_id": 39741, "name": "GPS BIIF-6  (PRN 06)", "group": "gnss", "lat": -49.97903673096754, "lon": -149.69460700286572, "alt_km": 20155.950838178927, "timestamp": "2025-12-20T07:33:51.055846+00:00", "meta": {"OBJECT_NAME": "GPS BIIF-6  (PRN 06)", "OBJECT_ID": "2014-026A", "EPOCH": "2025-12-18T23:24:45.525888", "MEAN_MOTION": 2.00561009, "ECCENTRICITY": 0.00393411, "INCLINATION": 56.5812, "RA_OF_ASC_NODE": 338.5339, "ARG_OF_PERICENTER": 319.0443, "MEAN_ANOMALY": 40.6665, "EPHEMERIS_TYPE": 0, "CLASSIFICATION_TYPE": "U", "NORAD_CAT_ID": 39741, "ELEMENT_SET_NO": 999, "REV_AT_EPOCH": 8492, "BSTAR": 0, "MEAN_MOTION_DOT": -8.1e-07, "MEAN_MOTION_DDOT": 0}, "tle": {"line1": "1 39741U 14026A   25352.97552692 -.00000081  00000+0  00000+0 0  9997", "line2": "2 39741  56.5812 338.5339 0039341 319.0443  40.6665  2.00561009 84924"}}, "geometry": {"type": "Point", "coordinates": [-149.69460700286572, -49.97903673096754]}}, {"type": "Feature", "properties": {"norad_id": 40001, "name": "COSMOS 2500 (755)", "group": "gnss", "lat": 42.11940302907996, "lon": -15.710272219131236, "alt_km": 19144.3829556406, "timestamp": "2025-12-20T07:33:51.055857+00:00", "meta": {"OBJECT_NAME": "COSMOS 2500 (755)", "OBJECT_ID": "2014-032A", "EPOCH": "2025-12-19T07:33:00.956160", "MEAN_MOTION": 2.13106226, "ECCENTRICITY": 0.0007806, "INCLINATION": 65.3396, "RA_OF_ASC_NODE": 319.8089, "ARG_OF_PERICENTER": 219.2703, "MEAN_ANOMALY": 140.6644, "EPHEMERIS_TYPE": 0, "CLASSIFICATION_TYPE": "U", "NORAD_CAT_ID": 40001, "ELEMENT_SET_NO": 999, "REV_AT_EPOCH": 8962, "BSTAR": 0, "MEAN_MOTION_DOT": -5.9e-07, "MEAN_MOTION_DDOT": 0}, "tle": {"line1": "1 40001U 14032A   25353.31459440 -.00000059  00000+0  00000+0 0  9996", "line2": "2 40001  65.3396 319.8089 0007806 219.2703 140.6644  2.13106226 89625"}}, "geometry": {"type": "Point", "coordinates": [-15.710272219131236, 42.11940302907996]}}, {"type": "Feature", "properties": {"norad_id": 40105, "name": "GPS BIIF-7  (PRN 09)", "group": "gnss", "lat": -4.222643000652937, "lon": -81.46789095612358, "alt_km": 20145.46570066834, "timestamp": "2025-12-20T07:33:51.055868+00:00", "meta": {"OBJECT_NAME": "GPS BIIF-7  (PRN 09)", "OBJECT_ID": "2014-045A", "EPOCH": "2025-12-18T01:34:21.644256", "MEAN_MOTION": 2.00572958, "ECCENTRICITY": 0.00325491, "INCLINATION": 55.2322, "RA_OF_ASC_NODE": 95.6864, "ARG_OF_PERICENTER": 120.0469, "MEAN_ANOMALY": 240.2601, "EPHEMERIS_TYPE": 0, "CLASSIFICATION_TYPE": "U", "NORAD_CAT_ID": 40105, "ELEMENT_SET_NO": 999, "REV_AT_EPOCH": 8244, "BSTAR": 0, "MEAN_MOTION_DOT": -3.8e-07, "MEAN_MOTION_DDOT": 0}, "tle": {"line1": "1 40105U 14045A   25352.06552829 -.00000038  00000+0  00000+0 0  9998", "line2": "2 40105  55.2322  95.6864 0032549 120.0469 240.2601  2.00572958 82445"}}, "geometry": {"type": "Point", "coordinates": [-81.46789095612358, -4.222643000652937]}}, {"type": "Feature", "properties": {"norad_id": 40128, "name": "GSAT0201 (GALILEO 5)", "group": "gnss", "lat": -48.74811151360797, "lon": -160.3130806120628, "alt_km": 21921.633592266993, "timestamp": "2025-12-20T07:33:51.055880+00:00", "meta": {"OBJECT_NAME": "GSAT0201 (GALILEO 5)", "OBJECT_ID": "2014-050A", "EPOCH": "2025-12-14T00:08:14.916480", "MEAN_MOTION": 1.85519648, "ECCENTRICITY": 0.16480052, "INCLINATION": 49.0753, "RA_OF_ASC_NODE": 281.012, "ARG_OF_PERICENTER": 172.3262, "MEAN_ANOMALY": 190.5827, "EPHEMERIS_TYPE": 0, "CLASSIFICATION_TYPE": "U", "NORAD_CAT_ID": 40128, "ELEMENT_SET_NO": 999, "REV_AT_EPOCH": 7488, "BSTAR": 0, "MEAN_MOTION_DOT": -9.9e-07, "MEAN_MOTION_DDOT": 0}, "tle": {"line1": "1 40128U 14050A   25348.00572820 -.00000099  00000+0  00000+0 0  9998", "line2": "2 40128  49.0753 281.0120 1648005 172.3262 190.5827  1.85519648 74882"}}, "geometry": {"type": "Point", "coordinates": [-160.3130806120628, -48.74811151360797]}}, {"type": "Feature", "properties": {"norad_id": 40129, "name": "GSAT0202 (GALILEO 6)", "group": "gnss", "lat": 44.040002310367555, "lon": -23.314003639436482, "alt_km": 22161.55691943111, "timestamp": "2025-12-20T07:33:51.055892+00:00", "meta": {"OBJECT_NAME": "GSAT0202 (GALILEO 6)", "OBJECT_ID": "2014-050B", "EPOCH": "2025-12-18T13:46:22.484640", "MEAN_MOTION": 1.85520466, "ECCENTRICITY": 0.16491259, "INCLINATION": 49.0858, "RA_OF_ASC_NODE": 279.9095, "ARG_OF_PERICENTER": 173.2442, "MEAN_ANOMALY": 189.3393, "EPHEMERIS_TYPE": 0, "CLASSIFICATION_TYPE": "U", "NORAD_CAT_ID": 40129, "ELEMENT_SET_NO": 999, "REV_AT_EPOCH": 7713, "BSTAR": 0, "MEAN_MOTION_DOT": -5.9e-07, "MEAN_MOTION_DDOT": 0}, "tle": {"line1": "1 40129U 14050B   25352.57387135 -.00000059  00000+0  00000+0 0  9995", "line2": "2 40129  49.0858 279.9095 1649125 173.2442 189.3393  1.85520466 77135"}}, "geometry": {"type": "Point", "coordinates": [-23.314003639436482, 44.040002310367555]}}, {"type": "Feature", "properties": {"norad_id": 40269, "name": "IRNSS-1C", "group": "gnss", "lat": -1.3980089687253232, "lon": -74.51501234085556, "alt_km": 35860.57265556727, "timestamp": "2025-12-20T07:33:51.055903+00:00", "meta": {"OBJECT_NAME": "IRNSS-1C", "OBJECT_ID": "2014-061A", "EPOCH": "2025-12-19T20:30:17.808192", "MEAN_MOTION": 1.0027408, "ECCENTRICITY": 0.00180596, "INCLINATION": 6.0596, "RA_OF_ASC_NODE": 92.4798, "ARG_OF_PERICENTER": 1.3194, "MEAN_ANOMALY": 25.4519, "EPHEMERIS_TYPE": 0, "CLASSIFICATION_TYPE": "U", "NORAD_CAT_ID": 40269, "ELEMENT_SET_NO": 999, "REV_AT_EPOCH": 4089, "BSTAR": 0, "MEAN_MOTION_DOT": -1.43e-06, "MEAN_MOTION_DDOT": 0}, "tle": {"line1": "1 40269U 14061A   25353.85437278 -.00000143  00000+0  00000+0 0  9992", "line2": "2 40269   6.0596  92.4798 0018059   1.3194  25.4519  1.00274080 40898"}}, "geometry": {"type": "Point", "coordinates": [-74.51501234085556, -1.3980089687253232]}}, {"type": "Feature", "properties": {"norad_id": 40294, "name": "GPS BIIF-8  (PRN 03)", "group": "gnss", "lat": -56.76344302206915, "lon": -47.115036634672855, "alt_km": 20336.099281693365, "timestamp": "2025-12-20T07:33:51.055915+00:00", "meta": {"OBJECT_NAME": "GPS BIIF-8  (PRN 03)", "OBJECT_ID": "2014-068A", "EPOCH": "2025-12-19T10:32:44.453760", "MEAN_MOTION": 2.00565341, "ECCENTRICITY": 0.0060808, "INCLINATION": 56.8627, "RA_OF_ASC_NODE": 37.8869, "ARG_OF_PERICENTER": 69.0507, "MEAN_ANOMALY": 291.6667, "EPHEMERIS_TYPE": 0, "CLASSIFICATION_TYPE": "U", "NORAD_CAT_ID": 40294, "ELEMENT_SET_NO": 999, "REV_AT_EPOCH": 8160, "BSTAR": 0, "MEAN_MOTION_DOT": -6.1e-07, "MEAN_MOTION_DDOT": 0}, "tle": {"line1": "1 40294U 14068A   25353.43940340 -.00000061  00000+0  00000+0 0  9999", "line2": "2 40294  56.8627  37.8869 0060808  69.0507 291.6667  2.00565341 81603"}}, "geometry": {"type": "Point", "coordinates": [-47.115036634672855, -56.76344302206915]}}]}